[{"OBJECT_NAME":"STARLINK-5526","OBJECT_ID":"2023-064BA","EPOCH":"2025-08-26T17:47:32.531136","MEAN_MOTION":14.98339638,"ECCENTRICITY":0.00032929,"INCLINATION":69.9984,"RA_OF_ASC_NODE":235.8882,"ARG_OF_PERICENTER":267.9164,"MEAN_ANOMALY":92.1618,"EPHEMERIS_TYPE":0,"CLASSIFICATION_TYPE":"U","NORAD_CAT_ID":56496,"ELEMENT_SET_NO":999,"REV_AT_EPOCH":12703,"BSTAR":6.8566601e-5,"MEAN_MOTION_DOT":7.25e-6,"MEAN_MOTION_DDOT":0},{"OBJECT_NAME":"STARLINK-5527","OBJECT_ID":"2023-064BB","EPOCH":"2025-08-26T22:30:09.826272","MEAN_MOTION":14.98331625,"ECCENTRICITY":0.00031674,"INCLINATION":69.9986,"RA_OF_ASC_NODE":235.3692,"ARG_OF_PERICENTER":270.116,"MEAN_ANOMALY":89.9636,"EPHEMERIS_TYPE":0,"CLASSIFICATION_TYPE":"U","NORAD_CAT_ID":56497,"ELEMENT_SET_NO":999,"REV_AT_EPOCH":12706,"BSTAR":4.3719447e-5,"MEAN_MOTION_DOT":4.29e-6,"MEAN_MOTION_DDOT":0},{"OBJECT_NAME":"STARLINK-5522","OBJECT_ID":"2023-064BC","EPOCH":"2025-08-26T09:58:54.507360","MEAN_MOTION":14.98325163,"ECCENTRICITY":0.00037136,"INCLINATION":69.9983,"RA_OF_ASC_NODE":236.7586,"ARG_OF_PERICENTER":266.4024,"MEAN_ANOMALY":93.671,"EPHEMERIS_TYPE":0,"CLASSIFICATION_TYPE":"U","NORAD_CAT_ID":56498,"ELEMENT_SET_NO":999,"REV_AT_EPOCH":12698,"BSTAR":1.1969527e-5,"MEAN_MOTION_DOT":5.0e-7,"MEAN_MOTION_DDOT":0},{"OBJECT_NAME":"STARLINK-5775","OBJECT_ID":"2023-065A","EPOCH":"2025-08-26T20:45:06.910848","MEAN_MOTION":15.02551082,"ECCENTRICITY":8.925e-5,"INCLINATION":43.0027,"RA_OF_ASC_NODE":189.3461,"ARG_OF_PERICENTER":270.4785,"MEAN_ANOMALY":89.5955,"EPHEMERIS_TYPE":0,"CLASSIFICATION_TYPE":"U","NORAD_CAT_ID":56503,"ELEMENT_SET_NO":999,"REV_AT_EPOCH":12731,"BSTAR":9.0064722e-5,"MEAN_MOTION_DOT":1.014e-5,"MEAN_MOTION_DDOT":0},{"OBJECT_NAME":"STARLINK-5716","OBJECT_ID":"2023-065B","EPOCH":"2025-08-26T22:16:03.101952","MEAN_MOTION":15.02533783,"ECCENTRICITY":0.00012217,"INCLINATION":43.0031,"RA_OF_ASC_NODE":188.9595,"ARG_OF_PERICENTER":269.8142,"MEAN_ANOMALY":90.2561,"EPHEMERIS_TYPE":0,"CLASSIFICATION_TYPE":"U","NORAD_CAT_ID":56504,"ELEMENT_SET_NO":999,"REV_AT_EPOCH":12732,"BSTAR":9.232006e-6,"MEAN_MOTION_DOT":-7.9e-7,"MEAN_MOTION_DDOT":0},{"OBJECT_NAME":"STARLINK-5763","OBJECT_ID":"2023-065C","EPOCH":"2025-08-26T22:12:51.427008","MEAN_MOTION":15.02534429,"ECCENTRICITY":0.0001023,"INCLINATION":43.0006,"RA_OF_ASC_NODE":188.9411,"ARG_OF_PERICENTER":268.3959,"MEAN_ANOMALY":91.6766,"EPHEMERIS_TYPE":0,"CLASSIFICATION_TYPE":"U","NORAD_CAT_ID":56505,"ELEMENT_SET_NO":999,"REV_AT_EPOCH":12732,"BSTAR":-2.9570818e-5,"MEAN_MOTION_DOT":-6.03e-6,"MEAN_MOTION_DDOT":0},{"OBJECT_NAME":"STARLINK-5340","OBJECT_ID":"2023-065D","EPOCH":"2025-08-26T22:24:24.567552","MEAN_MOTION":15.02536235,"ECCENTRICITY":8.847e-5,"INCLINATION":43.0022,"RA_OF_ASC_NODE":175.9851,"ARG_OF_PERICENTER":258.6032,"MEAN_ANOMALY":101.4711,"EPHEMERIS_TYPE":0,"CLASSIFICATION_TYPE":"U","NORAD_CAT_ID":56506,"ELEMENT_SET_NO":999,"REV_AT_EPOCH":12747,"BSTAR":4.8906767e-5,"MEAN_MOTION_DOT":4.57e-6,"MEAN_MOTION_DDOT":0},{"OBJECT_NAME":"STARLINK-5333","OBJECT_ID":"2023-065E","EPOCH":"2025-08-26T03:11:36.789216","MEAN_MOTION":15.02536323,"ECCENTRICITY":0.00011533,"INCLINATION":43.0054,"RA_OF_ASC_NODE":154.2714,"ARG_OF_PERICENTER":267.7715,"MEAN_ANOMALY":92.2995,"EPHEMERIS_TYPE":0,"CLASSIFICATION_TYPE":"U","NORAD_CAT_ID":56507,"ELEMENT_SET_NO":999,"REV_AT_EPOCH":12765,"BSTAR":4.8552057e-5,"MEAN_MOTION_DOT":4.52e-6,"MEAN_MOTION_DDOT":0},{"OBJECT_NAME":"STARLINK-5335","OBJECT_ID":"2023-065F","EPOCH":"2025-08-26T14:09:25.206912","MEAN_MOTION":15.02534394,"ECCENTRICITY":0.00012057,"INCLINATION":43.0032,"RA_OF_ASC_NODE":190.7219,"ARG_OF_PERICENTER":268.3291,"MEAN_ANOMALY":91.7413,"EPHEMERIS_TYPE":0,"CLASSIFICATION_TYPE":"U","NORAD_CAT_ID":56508,"ELEMENT_SET_NO":999,"REV_AT_EPOCH":12727,"BSTAR":1.6241976e-5,"MEAN_MOTION_DOT":1.6e-7,"MEAN_MOTION_DDOT":0},{"OBJECT_NAME":"STARLINK-5334","OBJECT_ID":"2023-065G","EPOCH":"2025-08-26T21:55:16.297248","MEAN_MOTION":15.02535962,"ECCENTRICITY":0.0001106,"INCLINATION":43.0049,"RA_OF_ASC_NODE":188.8472,"ARG_OF_PERICENTER":266.5407,"MEAN_ANOMALY":93.5309,"EPHEMERIS_TYPE":0,"CLASSIFICATION_TYPE":"U","NORAD_CAT_ID":56509,"ELEMENT_SET_NO":999,"REV_AT_EPOCH":12732,"BSTAR":1.5644349e-5,"MEAN_MOTION_DOT":8.0e-8,"MEAN_MOTION_DDOT":0},{"OBJECT_NAME":"STARLINK-5339","OBJECT_ID":"2023-065H","EPOCH":"2025-08-26T22:04:53.602176","MEAN_MOTION":15.02516524,"ECCENTRICITY":0.00011559,"INCLINATION":43.0033,"RA_OF_ASC_NODE":188.8995,"ARG_OF_PERICENTER":289.7189,"MEAN_ANOMALY":70.3529,"EPHEMERIS_TYPE":0,"CLASSIFICATION_TYPE":"U","NORAD_CAT_ID":56510,"ELEMENT_SET_NO":999,"REV_AT_EPOCH":12732,"BSTAR":-0.00019862931,"MEAN_MOTION_DOT":-2.884e-5,"MEAN_MOTION_DDOT":0},{"OBJECT_NAME":"STARLINK-5351","OBJECT_ID":"2023-065J","EPOCH":"2025-08-26T21:50:28.491936","MEAN_MOTION":15.0253601,"ECCENTRICITY":0.00010505,"INCLINATION":43.0023,"RA_OF_ASC_NODE":188.8185,"ARG_OF_PERICENTER":267.5349,"MEAN_ANOMALY":92.5373,"EPHEMERIS_TYPE":0,"CLASSIFICATION_TYPE":"U","NORAD_CAT_ID":56511,"ELEMENT_SET_NO":999,"REV_AT_EPOCH":12732,"BSTAR":4.816624e-6,"MEAN_MOTION_DOT":-1.38e-6,"MEAN_MOTION_DDOT":0},{"OBJECT_NAME":"STARLINK-5349","OBJECT_ID":"2023-065K","EPOCH":"2025-08-26T06:02:46.994784","MEAN_MOTION":15.02536651,"ECCENTRICITY":0.00010998,"INCLINATION":43.0022,"RA_OF_ASC_NODE":192.4764,"ARG_OF_PERICENTER":270.6449,"MEAN_ANOMALY":89.4268,"EPHEMERIS_TYPE":0,"CLASSIFICATION_TYPE":"U","NORAD_CAT_ID":56512,"ELEMENT_SET_NO":999,"REV_AT_EPOCH":12722,"BSTAR":5.4835375e-5,"MEAN_MOTION_DOT":5.37e-6,"MEAN_MOTION_DDOT":0},{"OBJECT_NAME":"STARLINK-5329","OBJECT_ID":"2023-065L","EPOCH":"2025-08-26T13:50:14.261280","MEAN_MOTION":15.02534372,"ECCENTRICITY":8.871e-5,"INCLINATION":43.0013,"RA_OF_ASC_NODE":190.6195,"ARG_OF_PERICENTER":268.696,"MEAN_ANOMALY":91.3781,"EPHEMERIS_TYPE":0,"CLASSIFICATION_TYPE":"U","NORAD_CAT_ID":56513,"ELEMENT_SET_NO":999,"REV_AT_EPOCH":12727,"BSTAR":2.9840813e-5,"MEAN_MOTION_DOT":2.0e-6,"MEAN_MOTION_DDOT":0},{"OBJECT_NAME":"STARLINK-5348","OBJECT_ID":"2023-065N","EPOCH":"2025-08-26T21:44:02.602752","MEAN_MOTION":15.025585,"ECCENTRICITY":0.00020394,"INCLINATION":43.0047,"RA_OF_ASC_NODE":188.7897,"ARG_OF_PERICENTER":281.1127,"MEAN_ANOMALY":78.9486,"EPHEMERIS_TYPE":0,"CLASSIFICATION_TYPE":"U","NORAD_CAT_ID":56515,"ELEMENT_SET_NO":999,"REV_AT_EPOCH":12732,"BSTAR":0.00049590889,"MEAN_MOTION_DOT":6.505e-5,"MEAN_MOTION_DDOT":0},{"OBJECT_NAME":"STARLINK-5342","OBJECT_ID":"2023-065P","EPOCH":"2025-08-26T21:52:04.172160","MEAN_MOTION":15.02539142,"ECCENTRICITY":0.00013479,"INCLINATION":43.0044,"RA_OF_ASC_NODE":188.828,"ARG_OF_PERICENTER":274.2887,"MEAN_ANOMALY":85.7801,"EPHEMERIS_TYPE":0,"CLASSIFICATION_TYPE":"U","NORAD_CAT_ID":56516,"ELEMENT_SET_NO":999,"REV_AT_EPOCH":12732,"BSTAR":6.220762e-5,"MEAN_MOTION_DOT":6.37e-6,"MEAN_MOTION_DDOT":0},{"OBJECT_NAME":"STARLINK-5345","OBJECT_ID":"2023-065Q","EPOCH":"2025-08-26T13:32:39.704352","MEAN_MOTION":15.02542626,"ECCENTRICITY":0.00011469,"INCLINATION":43.003,"RA_OF_ASC_NODE":190.5259,"ARG_OF_PERICENTER":271.0048,"MEAN_ANOMALY":89.0663,"EPHEMERIS_TYPE":0,"CLASSIFICATION_TYPE":"U","NORAD_CAT_ID":56517,"ELEMENT_SET_NO":999,"REV_AT_EPOCH":12727,"BSTAR":-2.5769779e-5,"MEAN_MOTION_DOT":-5.52e-6,"MEAN_MOTION_DDOT":0},{"OBJECT_NAME":"STARLINK-5346","OBJECT_ID":"2023-065R","EPOCH":"2025-08-26T21:39:17.011872","MEAN_MOTION":15.02534948,"ECCENTRICITY":0.00011603,"INCLINATION":43.0019,"RA_OF_ASC_NODE":188.7616,"ARG_OF_PERICENTER":271.7026,"MEAN_ANOMALY":88.3684,"EPHEMERIS_TYPE":0,"CLASSIFICATION_TYPE":"U","NORAD_CAT_ID":56518,"ELEMENT_SET_NO":999,"REV_AT_EPOCH":12732,"BSTAR":9.033216e-5,"MEAN_MOTION_DOT":1.017e-5,"MEAN_MOTION_DDOT":0},{"OBJECT_NAME":"STARLINK-6313","OBJECT_ID":"2023-065S","EPOCH":"2025-08-26T13:26:15.868032","MEAN_MOTION":15.02544445,"ECCENTRICITY":0.00011575,"INCLINATION":43.0029,"RA_OF_ASC_NODE":190.4927,"ARG_OF_PERICENTER":270.4108,"MEAN_ANOMALY":89.6601,"EPHEMERIS_TYPE":0,"CLASSIFICATION_TYPE":"U","NORAD_CAT_ID":56519,"ELEMENT_SET_NO":999,"REV_AT_EPOCH":12727,"BSTAR":9.1920238e-5,"MEAN_MOTION_DOT":1.039e-5,"MEAN_MOTION_DDOT":0},{"OBJECT_NAME":"STARLINK-6344","OBJECT_ID":"2023-065T","EPOCH":"2025-08-26T13:35:50.803872","MEAN_MOTION":15.02538564,"ECCENTRICITY":0.0001362,"INCLINATION":43.003,"RA_OF_ASC_NODE":190.5432,"ARG_OF_PERICENTER":271.8176,"MEAN_ANOMALY":88.2511,"EPHEMERIS_TYPE":0,"CLASSIFICATION_TYPE":"U","NORAD_CAT_ID":56520,"ELEMENT_SET_NO":999,"REV_AT_EPOCH":12727,"BSTAR":6.8200461e-5,"MEAN_MOTION_DOT":7.18e-6,"MEAN_MOTION_DDOT":0},{"OBJECT_NAME":"STARLINK-6333","OBJECT_ID":"2023-065U","EPOCH":"2025-08-26T20:51:20.982240","MEAN_MOTION":15.025465,"ECCENTRICITY":0.00011545,"INCLINATION":43.0028,"RA_OF_ASC_NODE":188.5111,"ARG_OF_PERICENTER":260.3326,"MEAN_ANOMALY":99.7386,"EPHEMERIS_TYPE":0,"CLASSIFICATION_TYPE":"U","NORAD_CAT_ID":56521,"ELEMENT_SET_NO":999,"REV_AT_EPOCH":12732,"BSTAR":6.4909369e-5,"MEAN_MOTION_DOT":6.74e-6,"MEAN_MOTION_DDOT":0},{"OBJECT_NAME":"STARLINK-6327","OBJECT_ID":"2023-065V","EPOCH":"2025-08-26T13:27:51.937056","MEAN_MOTION":15.02532569,"ECCENTRICITY":6.633e-5,"INCLINATION":43.0024,"RA_OF_ASC_NODE":190.5009,"ARG_OF_PERICENTER":265.2975,"MEAN_ANOMALY":94.7791,"EPHEMERIS_TYPE":0,"CLASSIFICATION_TYPE":"U","NORAD_CAT_ID":56522,"ELEMENT_SET_NO":999,"REV_AT_EPOCH":12727,"BSTAR":-3.3119531e-5,"MEAN_MOTION_DOT":-6.51e-6,"MEAN_MOTION_DDOT":0},{"OBJECT_NAME":"STARLINK-6328","OBJECT_ID":"2023-065W","EPOCH":"2025-08-26T20:57:44.127360","MEAN_MOTION":15.02533982,"ECCENTRICITY":0.00011978,"INCLINATION":43.0023,"RA_OF_ASC_NODE":188.5453,"ARG_OF_PERICENTER":267.1854,"MEAN_ANOMALY":92.8851,"EPHEMERIS_TYPE":0,"CLASSIFICATION_TYPE":"U","NORAD_CAT_ID":56523,"ELEMENT_SET_NO":999,"REV_AT_EPOCH":12732,"BSTAR":1.6576772e-5,"MEAN_MOTION_DOT":2.0e-7,"MEAN_MOTION_DDOT":0}]
